{
  "type": "FeatureCollection",
  "features": [
    {
      "type": "Feature",
      "properties": {
        "norad_id": 67018,
        "name": "STARLINK-36106",
        "group": "last-30-days",
        "lat": -61.02784173589978,
        "lon": 154.53802713510572,
        "alt_km": 321.33039298632684,
        "timestamp": "2025-12-23T05:02:10.752539+00:00",
        "meta_object_name": "STARLINK-36106",
        "meta_object_id": "2025-293R",
        "meta_epoch": "2025-12-22T22:00:03.000096",
        "meta_mean_motion": 15.85782338,
        "meta_eccentricity": 0.00040302,
        "meta_inclination": 69.9932,
        "meta_ra_of_asc_node": 294.2257,
        "meta_arg_of_pericenter": 266.0422,
        "meta_mean_anomaly": 110.1082,
        "meta_ephemeris_type": 0,
        "meta_classification_type": "U",
        "meta_norad_cat_id": 67018,
        "meta_element_set_no": 999,
        "meta_rev_at_epoch": 186,
        "meta_bstar": -0.007776108,
        "meta_mean_motion_dot": -0.01658419,
        "meta_mean_motion_ddot": 0,
        "tle_line1": "1 67018U 25293R   25356.91670139 -.01658419  00000+0 -77761-2 0  9995",
        "tle_line2": "2 67018  69.9932 294.2257 0004030 266.0422 110.1082 15.85782338  1860"
      },
      "geometry": {
        "type": "Point",
        "coordinates": [
          154.53802713510572,
          -61.02784173589978
        ]
      }
    },
    {
      "type": "Feature",
      "properties": {
        "norad_id": 67019,
        "name": "STARLINK-35688",
        "group": "last-30-days",
        "lat": -62.627896665548356,
        "lon": 158.11218516955051,
        "alt_km": 321.3748610203247,
        "timestamp": "2025-12-23T05:02:10.752556+00:00",
        "meta_object_name": "STARLINK-35688",
        "meta_object_id": "2025-293S",
        "meta_epoch": "2025-12-22T22:00:03.000096",
        "meta_mean_motion": 15.85783694,
        "meta_eccentricity": 0.00040176,
        "meta_inclination": 69.993,
        "meta_ra_of_asc_node": 294.2229,
        "meta_arg_of_pericenter": 266.6506,
        "meta_mean_anomaly": 111.8347,
        "meta_ephemeris_type": 0,
        "meta_classification_type": "U",
        "meta_norad_cat_id": 67019,
        "meta_element_set_no": 999,
        "meta_rev_at_epoch": 194,
        "meta_bstar": -0.0078705161,
        "meta_mean_motion_dot": -0.01676007,
        "meta_mean_motion_ddot": 0,
        "tle_line1": "1 67019U 25293S   25356.91670139 -.01676007  00000+0 -78705-2 0  9998",
        "tle_line2": "2 67019  69.9930 294.2229 0004017 266.6506 111.8347 15.85783694  1949"
      },
      "geometry": {
        "type": "Point",
        "coordinates": [
          158.11218516955051,
          -62.627896665548356
        ]
      }
    },
    {
      "type": "Feature",
      "properties": {
        "norad_id": 67020,
        "name": "STARLINK-36172",
        "group": "last-30-days",
        "lat": -64.45245888489953,
        "lon": 163.04472721022913,
        "alt_km": 321.47140215212767,
        "timestamp": "2025-12-23T05:02:10.752566+00:00",
        "meta_object_name": "STARLINK-36172",
        "meta_object_id": "2025-293T",
        "meta_epoch": "2025-12-22T22:00:03.000096",
        "meta_mean_motion": 15.85758406,
        "meta_eccentricity": 0.00039634,
        "meta_inclination": 69.993,
        "meta_ra_of_asc_node": 294.2198,
        "meta_arg_of_pericenter": 265.6108,
        "meta_mean_anomaly": 115.7618,
        "meta_ephemeris_type": 0,
        "meta_classification_type": "U",
        "meta_norad_cat_id": 67020,
        "meta_element_set_no": 999,
        "meta_rev_at_epoch": 186,
        "meta_bstar": -0.0078989273,
        "meta_mean_motion_dot": -0.01679389,
        "meta_mean_motion_ddot": 0,
        "tle_line1": "1 67020U 25293T   25356.91670139 -.01679389  00000+0 -78989-2 0  9990",
        "tle_line2": "2 67020  69.9930 294.2198 0003963 265.6108 115.7618 15.85758406  1860"
      },
      "geometry": {
        "type": "Point",
        "coordinates": [
          163.04472721022913,
          -64.45245888489953
        ]
      }
    },
    {
      "type": "Feature",
      "properties": {
        "norad_id": 67021,
        "name": "STARLINK-36184",
        "group": "last-30-days",
        "lat": -65.96843401921186,
        "lon": 168.17790240346056,
        "alt_km": 321.5570127487863,
        "timestamp": "2025-12-23T05:02:10.752576+00:00",
        "meta_object_name": "STARLINK-36184",
        "meta_object_id": "2025-293U",
        "meta_epoch": "2025-12-22T22:00:03.000096",
        "meta_mean_motion": 15.85734401,
        "meta_eccentricity": 0.00039199,
        "meta_inclination": 69.9931,
        "meta_ra_of_asc_node": 294.2164,
        "meta_arg_of_pericenter": 264.6833,
        "meta_mean_anomaly": 119.3498,
        "meta_ephemeris_type": 0,
        "meta_classification_type": "U",
        "meta_norad_cat_id": 67021,
        "meta_element_set_no": 999,
        "meta_rev_at_epoch": 186,
        "meta_bstar": -0.0079033127,
        "meta_mean_motion_dot": -0.01678432,
        "meta_mean_motion_ddot": 0,
        "tle_line1": "1 67021U 25293U   25356.91670139 -.01678432  00000+0 -79033-2 0  9990",
        "tle_line2": "2 67021  69.9931 294.2164 0003919 264.6833 119.3498 15.85734401  1865"
      },
      "geometry": {
        "type": "Point",
        "coordinates": [
          168.17790240346056,
          -65.96843401921186
        ]
      }
    },
    {
      "type": "Feature",
      "properties": {
        "norad_id": 67022,
        "name": "STARLINK-36209",
        "group": "last-30-days",
        "lat": -67.46534272666376,
        "lon": 174.79503555291726,
        "alt_km": 321.5958405288593,
        "timestamp": "2025-12-23T05:02:10.752585+00:00",
        "meta_object_name": "STARLINK-36209",
        "meta_object_id": "2025-293V",
        "meta_epoch": "2025-12-22T22:00:03.000096",
        "meta_mean_motion": 15.85699751,
        "meta_eccentricity": 0.0004019,
        "meta_inclination": 69.9928,
        "meta_ra_of_asc_node": 294.2129,
        "meta_arg_of_pericenter": 267.7395,
        "meta_mean_anomaly": 119.3487,
        "meta_ephemeris_type": 0,
        "meta_classification_type": "U",
        "meta_norad_cat_id": 67022,
        "meta_element_set_no": 999,
        "meta_rev_at_epoch": 186,
        "meta_bstar": -0.0078996378,
        "meta_mean_motion_dot": -0.01675409,
        "meta_mean_motion_ddot": 0,
        "tle_line1": "1 67022U 25293V   25356.91670139 -.01675409  00000+0 -78996-2 0  9999",
        "tle_line2": "2 67022  69.9928 294.2129 0004019 267.7395 119.3487 15.85699751  1868"
      },
      "geometry": {
        "type": "Point",
        "coordinates": [
          174.79503555291726,
          -67.46534272666376
        ]
      }
    },
    {
      "type": "Feature",
      "properties": {
        "norad_id": 67023,
        "name": "STARLINK-36191",
        "group": "last-30-days",
        "lat": -68.49198346534081,
        "lon": -179.01692547064326,
        "alt_km": 321.70664572806527,
        "timestamp": "2025-12-23T05:02:10.752597+00:00",
        "meta_object_name": "STARLINK-36191",
        "meta_object_id": "2025-293W",
        "meta_epoch": "2025-12-22T22:00:03.000096",
        "meta_mean_motion": 15.85678923,
        "meta_eccentricity": 0.00039257,
        "meta_inclination": 69.9928,
        "meta_ra_of_asc_node": 294.2093,
        "meta_arg_of_pericenter": 265.1238,
        "meta_mean_anomaly": 124.5251,
        "meta_ephemeris_type": 0,
        "meta_classification_type": "U",
        "meta_norad_cat_id": 67023,
        "meta_element_set_no": 999,
        "meta_rev_at_epoch": 175,
        "meta_bstar": -0.0079091563,
        "meta_mean_motion_dot": -0.01675564,
        "meta_mean_motion_ddot": 0,
        "tle_line1": "1 67023U 25293W   25356.91670139 -.01675564  00000+0 -79092-2 0  9990",
        "tle_line2": "2 67023  69.9928 294.2093 0003925 265.1238 124.5251 15.85678923  1755"
      },
      "geometry": {
        "type": "Point",
        "coordinates": [
          -179.01692547064326,
          -68.49198346534081
        ]
      }
    },
    {
      "type": "Feature",
      "properties": {
        "norad_id": 67024,
        "name": "STARLINK-36192",
        "group": "last-30-days",
        "lat": -69.34105878362179,
        "lon": -171.53333311689457,
        "alt_km": 321.76237242788466,
        "timestamp": "2025-12-23T05:02:10.752607+00:00",
        "meta_object_name": "STARLINK-36192",
        "meta_object_id": "2025-293X",
        "meta_epoch": "2025-12-22T22:00:03.000096",
        "meta_mean_motion": 15.8565053,
        "meta_eccentricity": 0.00039699,
        "meta_inclination": 69.993,
        "meta_ra_of_asc_node": 294.2063,
        "meta_arg_of_pericenter": 266.7754,
        "meta_mean_anomaly": 125.731,
        "meta_ephemeris_type": 0,
        "meta_classification_type": "U",
        "meta_norad_cat_id": 67024,
        "meta_element_set_no": 999,
        "meta_rev_at_epoch": 186,
        "meta_bstar": -0.0079218488,
        "meta_mean_motion_dot": -0.01675933,
        "meta_mean_motion_ddot": 0,
        "tle_line1": "1 67024U 25293X   25356.91670139 -.01675933  00000+0 -79218-2 0  9991",
        "tle_line2": "2 67024  69.9930 294.2063 0003969 266.7754 125.7310 15.85650530  1869"
      },
      "geometry": {
        "type": "Point",
        "coordinates": [
          -171.53333311689457,
          -69.34105878362179
        ]
      }
    }
  ]
}